ONEWEB-0328             
1 49197U 21083M   24126.93297571  .00000032  00000+0  52306-4 0  9996
2 49197  87.8887 113.9562 0002102  84.3676 275.7693 13.13470854129528
ONEWEB-0331             
1 49198U 21083N   24126.95328444  .00000106  00000+0  23560-3 0  9994
2 49198  87.9121 129.1806 0002049  84.4800 275.6565 13.18683986128232
ONEWEB-0333             
1 49199U 21083P   24126.92821553 -.00000098  00000+0 -30458-3 0  9997
2 49199  87.8898 113.9789 0001887  92.4933 267.6412 13.13471344129533
ONEWEB-0334             
1 49200U 21083Q   24126.92201359 -.00000002  00000+0 -37024-4 0  9998
2 49200  87.9199  68.1393 0001566 104.4398 255.6909 13.20771857134855
ONEWEB-0335             
1 49201U 21083R   24126.92345542 -.00000163  00000+0 -48003-3 0  9998
2 49201  87.8899 113.9684 0002140  86.0703 274.0671 13.13470534129549
ONEWEB-0336             
1 49202U 21083S   24126.89329854  .00000145  00000+0  36214-3 0  9992
2 49202  87.8899 113.9711 0001828  88.8703 271.2636 13.13471077129535
ONEWEB-0337             
1 49203U 21083T   24126.90269430 -.00000099  00000+0 -30670-3 0  9998
2 49203  87.8899 113.9677 0002143  85.8729 274.2645 13.13469208129539
ONEWEB-0338             
1 49204U 21083U   24126.85256679  .00000113  00000+0  24489-3 0  9990
2 49204  87.9205  68.1343 0002046  94.0079 266.1288 13.20771262134864
ONEWEB-0339             
1 49205U 21083V   24127.21862865 -.00000291  00000+0 -83169-3 0  9991
2 49205  87.8896 113.9008 0002169  87.7597 272.3781 13.13468344130855
ONEWEB-0340             
1 49206U 21083W   24126.93906004  .00000084  00000+0  17918-3 0  9991
2 49206  87.9122 129.1776 0002020  84.7117 275.4246 13.18684304128196
ONEWEB-0341             
1 49207U 21083X   24126.94697632  .00000094  00000+0  20603-3 0  9993
2 49207  87.9120 129.1907 0002816  89.5692 270.5763 13.18685397128211
ONEWEB-0342             
1 49208U 21083Y   24126.85887215  .00000123  00000+0  27179-3 0  9990
2 49208  87.9197  68.1469 0002000  87.2193 272.9169 13.20770664134833
ONEWEB-0343             
1 49209U 21083Z   24127.24573374  .00000124  00000+0  28217-3 0  9998
2 49209  87.9115 129.1407 0002660  92.6085 267.5352 13.18685998129599
ONEWEB-0344             
1 49210U 21083AA  24126.95678722  .00000431  00000+0  11448-2 0  9998
2 49210  87.8900 113.9690 0002046  81.1081 279.0279 13.13470571129527
ONEWEB-0345             
1 49211U 21083AB  24126.89806683 -.00000011  00000+0 -63834-4 0  9995
2 49211  87.8897 113.9570 0002430  78.2361 281.9041 13.13469422129527
ONEWEB-0346             
1 49212U 21083AC  24127.10346049  .00000084  00000+0  17940-3 0  9990
2 49212  87.9120 129.1682 0001958  76.4425 283.6925 13.18684665129518
ONEWEB-0348             
1 49213U 21083AD  24126.84941785  .00000080  00000+0  16553-3 0  9994
2 49213  87.9208  68.1169 0002452  66.6765 293.4626 13.20771242134868
ONEWEB-0350             
1 49214U 21083AE  24127.21228987 -.00000218  00000+0 -63068-3 0  9997
2 49214  87.8896 113.8858 0002327  81.1558 278.9835 13.13471386130894
ONEWEB-0351             
1 49215U 21083AF  24126.84295797  .00000078  00000+0  15953-3 0  9991
2 49215  87.9201  68.1189 0001988 109.9170 250.2178 13.20770275134823
ONEWEB-0352             
1 49216U 21083AG  24126.50765505  .00000131  00000+0  32310-3 0  9990
2 49216  87.8900 114.0560 0002056  95.4609 264.6754 13.13470673129594
ONEWEB-0354             
1 49217U 21083AH  24126.86835827  .00000070  00000+0  13987-3 0  9996
2 49217  87.9203  68.0974 0002374  80.3118 279.8283 13.20770732134868
ONEWEB-0355             
1 49218U 21083AJ  24126.99486979 -.00000234  00000+0 -67603-3 0  9999
2 49218  87.8897 113.9582 0002184  89.4886 270.6493 13.13471307130836
ONEWEB-0357             
1 49219U 21083AK  24126.86518996  .00000133  00000+0  29486-3 0  9994
2 49219  87.9202  68.1179 0002202  86.7022 273.4363 13.20770292134861
ONEWEB-0332             
1 49279U 21090A   24126.92759599  .00000067  00000+0  14679-3 0  9995
2 49279  87.8939  83.3824 0001769  91.9766 268.1566 13.14504672126125
ONEWEB-0347             
1 49280U 21090B   24126.85573011  .00000131  00000+0  29146-3 0  9999
2 49280  87.9204  68.1178 0001699  92.4256 267.7072 13.20770935129098
ONEWEB-0349             
1 49281U 21090C   24126.88729009  .00000018  00000+0  12659-4 0  9999
2 49281  87.9206  68.1102 0002254  76.9101 283.2284 13.20770364127881
ONEWEB-0353             
1 49282U 21090D   24126.91966313 -.00000026  00000+0 -10469-3 0  9992
2 49282  87.8940  83.3684 0001854  90.7912 269.3430 13.14503903126129
ONEWEB-0356             
1 49283U 21090E   24126.88570328  .00000051  00000+0  92459-4 0  9992
2 49283  87.9206  68.1056 0001620  53.3570 306.7712 13.20770702127889
ONEWEB-0358             
1 49284U 21090F   24126.91568796  .00000036  00000+0  56101-4 0  9990
2 49284  87.9206  68.0857 0002077  72.8211 287.3149 13.20771117128614
ONEWEB-0359             
1 49285U 21090G   24126.91254071  .00000017  00000+0  88626-5 0  9996
2 49285  87.9206  68.1053 0002515  78.1403 282.0013 13.20770930128594
ONEWEB-0360             
1 49286U 21090H   24127.20610383  .00000118  00000+0  25883-3 0  9998
2 49286  87.9207  68.0516 0002145  80.3355 279.8021 13.20771584129230
ONEWEB-0361             
1 49287U 21090J   24126.88412908  .00000201  00000+0  46217-3 0  9992
2 49287  87.9201  68.1099 0001937  79.1205 281.0146 13.20773416128351
ONEWEB-0362             
1 49288U 21090K   24126.90738131  .00000052  00000+0  97760-4 0  9999
2 49288  87.9120  98.6837 0002314  92.6646 267.4751 13.19724431125054
ONEWEB-0363             
1 49289U 21090L   24127.20294770  .00000085  00000+0  17816-3 0  9999
2 49289  87.9205  68.0417 0001920  69.4224 290.7116 13.20771426129236
ONEWEB-0364             
1 49290U 21090M   24127.08932196  .00000050  00000+0  92231-4 0  9995
2 49290  87.9237  68.0861 0001227  84.2899 275.8374 13.20767380130347
ONEWEB-0365             
1 49291U 21090N   24127.22013250  .00000018  00000+0  13484-4 0  9990
2 49291  87.9114  98.6044 0002067  89.1032 271.0337 13.19725516125894
ONEWEB-0366             
1 49292U 21090P   24126.91649546 -.00000098  00000+0 -29934-3 0  9995
2 49292  87.8941  83.3778 0001836  84.1933 275.9406 13.14503804126109
ONEWEB-0367             
1 49293U 21090Q   24126.89833880  .00000036  00000+0  55451-4 0  9993
2 49293  87.9205  68.0968 0001783  85.1240 275.0097 13.20771153127882
ONEWEB-0368             
1 49294U 21090R   24126.87150662  .00000046  00000+0  80431-4 0  9999
2 49294  87.9209  68.1321 0001134  79.7537 280.3724 13.20771029129036
ONEWEB-0369             
1 49295U 21090S   24127.21538623  .00000004  00000+0 -22163-4 0  9999
2 49295  87.9120  98.6054 0001937  89.8774 270.2581 13.19724541125889
ONEWEB-0370             
1 49296U 21090T   24126.90782001  .00000000  00000+0 -32659-4 0  9993
2 49296  87.9206  68.0991 0002417  80.1174 280.0232 13.20773755127920
ONEWEB-0371             
1 49297U 21090U   24126.92001033  .00000041  00000+0  70292-4 0  9994
2 49297  87.9121  98.6542 0002078  90.0438 270.0932 13.19723934124592
ONEWEB-0372             
1 49298U 21090V   24126.89661995  .00000010  00000+0 -83914-5 0  9993
2 49298  87.9207  68.1096 0001976  85.7279 274.4080 13.20770228127892
ONEWEB-0373             
1 49299U 21090W   24127.07510353  .00000021  00000+0  20467-4 0  9990
2 49299  87.9205  68.0906 0001686  77.1039 283.0282 13.20770872130403
ONEWEB-0374             
1 49300U 21090X   24127.13216273 -.00000196  00000+0 -56411-3 0  9996
2 49300  87.8942  83.3204 0001852  82.7312 277.4028 13.14503715127421
ONEWEB-0375             
1 49301U 21090Y   24126.91096777 -.00000003  00000+0 -39036-4 0  9999
2 49301  87.9206  68.0992 0002011  59.9251 300.2081 13.20772244128580
ONEWEB-0376             
1 49302U 21090Z   24127.22170196 -.00000033  00000+0 -11451-3 0  9996
2 49302  87.9114  98.6052 0001951  94.3266 265.8090 13.19724776125911
ONEWEB-0377             
1 49303U 21090AA  24126.89690194  .00000012  00000+0 -18957-5 0  9990
2 49303  87.9204  68.0935 0002259  78.4622 281.6765 13.20771586128577
ONEWEB-0378             
1 49304U 21090AB  24126.91899989 -.00000006  00000+0 -46394-4 0  9996
2 49304  87.9207  68.0912 0001934  76.8922 283.2427 13.20771766127842
ONEWEB-0379             
1 49305U 21090AC  24126.89903661 -.00000322  00000+0 -90429-3 0  9995
2 49305  87.8940  83.3696 0001904  83.5033 276.6313 13.14501924126108
ONEWEB-0380             
1 49306U 21090AD  24127.21854417 -.00000023  00000+0 -89787-4 0  9991
2 49306  87.9119  98.6077 0002065  84.3829 275.7539 13.19724139125885
ONEWEB-0381             
1 49307U 21090AE  24126.89360702 -.00000019  00000+0 -78642-4 0  9997
2 49307  87.9207  68.1008 0002079  78.5330 281.6037 13.20773549127889
ONEWEB-0382             
1 49308U 21090AF  24126.88097841  .00000076  00000+0  15580-3 0  9990
2 49308  87.9204  68.1007 0001728  69.1839 290.9479 13.20771029127879
ONEWEB-0383             
1 49309U 21090AG  24126.89270862 -.00000035  00000+0 -12873-3 0  9997
2 49309  87.8939  83.3600 0001752  81.0919 279.0409 13.14503093126137
ONEWEB-0384             
1 49310U 21090AH  24126.87775357 -.00000688  00000+0 -17246-2 0  9998
2 49310  87.9202  68.1118 0001582  60.9031 299.2261 13.20755543127889
ONEWEB-0385             
1 49311U 21090AJ  24127.10035965  .00000057  00000+0  10915-3 0  9995
2 49311  87.9207  68.0691 0001880  70.8836 289.2501 13.20771257129208
ONEWEB-0386             
1 49312U 21090AK  24126.89045089  .00000055  00000+0  10239-3 0  9996
2 49312  87.9200  68.1085 0001769  75.5926 284.5404 13.20771455127879
ONEWEB-0387             
1 49313U 21090AL  24126.87466110  .00000082  00000+0  17017-3 0  9998
2 49313  87.9207  68.1713 0002170  71.9275 288.2094 13.20770475127876
ONEWEB-0388             
1 49314U 21090AM  24127.21380410  .00000028  00000+0  37142-4 0  9998
2 49314  87.9120  98.6119 0001840  84.1584 275.9758 13.19724082125881
